*******************************************************************************
Ephemeris / WWW_USER Mon Jul 15 19:20:00 2024 Pasadena, USA      / Horizons    
*******************************************************************************
Target body name: (2019 AS11)                     {source: JPL#3}
Center body name: Earth (399)                     {source: DE441}
Center-site name: Gemini South Obs., Cerro Pachon
*******************************************************************************
Start time      : A.D. 2019-Jan-08 23:58:00.0000 UT      
Stop  time      : A.D. 2019-Jan-09 09:41:00.0000 UT      
Step-size       : 1 minutes
*******************************************************************************
Target pole/equ : undefined
Target radii    : undefined                                                    
Center geodetic : 289.2634, -30.2406227, 2.71233  {E-lon(deg),Lat(deg),Alt(km)}
Center cylindric: 289.2634,5517.21435,-3194.81213 {E-lon(deg),Dxy(km),Dz(km)}
Center pole/equ : ITRF93                          {East-longitude positive}
Center radii    : 6378.137, 6378.137, 6356.752 km {Equator_a, b, pole_c}       
Target primary  : Sun
Vis. interferer : MOON (R_eq= 1737.400) km        {source: DE441}
Rel. light bend : Sun                             {source: DE441}
Rel. lght bnd GM: 1.3271E+11 km^3/s^2                                          
Small-body perts: Yes                             {source: SB441-N16}
Atmos refraction: NO (AIRLESS)
RA format       : HMS
Time format     : CAL 
Calendar mode   : Mixed Julian/Gregorian
RTS-only print  : NO       
EOP file        : eop.240715.p241008                                           
EOP coverage    : DATA-BASED 1962-JAN-20 TO 2024-JUL-15. PREDICTS-> 2024-OCT-07
Units conversion: 1 au= 149597870.700 km, c= 299792.458 km/s, 1 day= 86400.0 s 
Table cut-offs 1: Elevation (-90.0deg=NO ),Airmass (>38.000=NO), Daylight (YES)
Table cut-offs 2: Solar elongation (  0.0,180.0=NO ),Local Hour Angle( 0.0=NO )
Table cut-offs 3: RA/DEC angular rate (     0.0=NO )                           
*******************************************************************************
Initial IAU76/J2000 heliocentric ecliptic osculating elements (au, days, deg.):
  EPOCH=  2458497.5 ! 2019-Jan-14.00 (TDB)         Residual RMS= .087899       
   EC= .1148313279028816   QR= .9946661968961306   TP= 2458526.093433633       
   OM= 299.8828960483019   W=  203.050931799211    IN= 7.281527766683049       
  Equivalent ICRF heliocentric cartesian coordinates (au, au/d):
   X=-3.982431103506237E-01  Y= 8.438985356712057E-01  Z= 3.820551439764541E-01
  VX=-1.601846206933958E-02 VY=-6.309373484980013E-03 VZ=-5.215303828559489E-03
Asteroid physical parameters (km, seconds, rotational period in hours):        
   GM= n.a.                RAD= n.a.               ROTPER= n.a.                
   H= 26.8                 G= .150                 B-V= n.a.                   
                           ALBEDO= n.a.            STYP= n.a.                  
*******************************************************************************
 Date__(UT)__HR:MN     R.A._________(ICRF)_________DEC
******************************************************
$$SOE
 2019-Jan-08 23:58 Cm  08 18 40.063127 +62 28 43.10317
 2019-Jan-08 23:59 Cm  08 18 40.043412 +62 28 40.12014
 2019-Jan-09 00:00 Cm  08 18 40.023164 +62 28 37.13669
 2019-Jan-09 00:01 Cm  08 18 40.002383 +62 28 34.15280
 2019-Jan-09 00:02 Cm  08 18 39.981068 +62 28 31.16844
 2019-Jan-09 00:03 Cm  08 18 39.959221 +62 28 28.18362
 2019-Jan-09 00:04 Cm  08 18 39.936842 +62 28 25.19831
 2019-Jan-09 00:05 Cm  08 18 39.913929 +62 28 22.21250
 2019-Jan-09 00:06 Cm  08 18 39.890484 +62 28 19.22618
 2019-Jan-09 00:07 Cm  08 18 39.866507 +62 28 16.23933
 2019-Jan-09 00:08 Cm  08 18 39.841998 +62 28 13.25193
 2019-Jan-09 00:09 Cm  08 18 39.816956 +62 28 10.26398
 2019-Jan-09 00:10 Cm  08 18 39.791383 +62 28 07.27545
 2019-Jan-09 00:11 Cm  08 18 39.765278 +62 28 04.28634
 2019-Jan-09 00:12 Cm  08 18 39.738642 +62 28 01.29663
 2019-Jan-09 00:13 Cm  08 18 39.711474 +62 27 58.30631
 2019-Jan-09 00:14 Cm  08 18 39.683775 +62 27 55.31536
 2019-Jan-09 00:15 Cm  08 18 39.655545 +62 27 52.32376
 2019-Jan-09 00:16 Cm  08 18 39.626785 +62 27 49.33151
 2019-Jan-09 00:17 Nm  08 18 39.597494 +62 27 46.33858
 2019-Jan-09 00:18 Nm  08 18 39.567673 +62 27 43.34497
 2019-Jan-09 00:19 Nm  08 18 39.537323 +62 27 40.35066
 2019-Jan-09 00:20 Nm  08 18 39.506442 +62 27 37.35563
 2019-Jan-09 00:21 Nm  08 18 39.475033 +62 27 34.35988
 2019-Jan-09 00:22 Nm  08 18 39.443094 +62 27 31.36338
 2019-Jan-09 00:23 Nm  08 18 39.410626 +62 27 28.36613
 2019-Jan-09 00:24 Nm  08 18 39.377630 +62 27 25.36810
 2019-Jan-09 00:25 Nm  08 18 39.344106 +62 27 22.36929
 2019-Jan-09 00:26 Nm  08 18 39.310055 +62 27 19.36968
 2019-Jan-09 00:27 Nm  08 18 39.275475 +62 27 16.36926
 2019-Jan-09 00:28 Nm  08 18 39.240369 +62 27 13.36800
 2019-Jan-09 00:29 Nm  08 18 39.204736 +62 27 10.36591
 2019-Jan-09 00:30 Nm  08 18 39.168577 +62 27 07.36296
 2019-Jan-09 00:31 Nm  08 18 39.131892 +62 27 04.35913
 2019-Jan-09 00:32 Nm  08 18 39.094681 +62 27 01.35443
 2019-Jan-09 00:33 Nm  08 18 39.056945 +62 26 58.34882
 2019-Jan-09 00:34 Nm  08 18 39.018684 +62 26 55.34230
 2019-Jan-09 00:35 Nm  08 18 38.979899 +62 26 52.33485
 2019-Jan-09 00:36 Nm  08 18 38.940590 +62 26 49.32646
 2019-Jan-09 00:37 Nm  08 18 38.900758 +62 26 46.31712
 2019-Jan-09 00:38 Nm  08 18 38.860402 +62 26 43.30680
 2019-Jan-09 00:39 Nm  08 18 38.819524 +62 26 40.29550
 2019-Jan-09 00:40 Nm  08 18 38.778124 +62 26 37.28321
 2019-Jan-09 00:41 Nm  08 18 38.736203 +62 26 34.26990
 2019-Jan-09 00:42 Nm  08 18 38.693760 +62 26 31.25556
 2019-Jan-09 00:43 Nm  08 18 38.650797 +62 26 28.24019
 2019-Jan-09 00:44 Nm  08 18 38.607313 +62 26 25.22376
 2019-Jan-09 00:45 Nm  08 18 38.563310 +62 26 22.20626
 2019-Jan-09 00:46 Nm  08 18 38.518789 +62 26 19.18768
 2019-Jan-09 00:47 Nm  08 18 38.473748 +62 26 16.16800
 2019-Jan-09 00:48 Nm  08 18 38.428190 +62 26 13.14721
 2019-Jan-09 00:49 Nm  08 18 38.382114 +62 26 10.12530
 2019-Jan-09 00:50 Am  08 18 38.335522 +62 26 07.10225
 2019-Jan-09 00:51 Am  08 18 38.288413 +62 26 04.07805
 2019-Jan-09 00:52 Am  08 18 38.240789 +62 26 01.05268
 2019-Jan-09 00:53 Am  08 18 38.192650 +62 25 58.02613
 2019-Jan-09 00:54 Am  08 18 38.143996 +62 25 54.99839
 2019-Jan-09 00:55 Am  08 18 38.094829 +62 25 51.96944
 2019-Jan-09 00:56 Am  08 18 38.045148 +62 25 48.93927
 2019-Jan-09 00:57 Am  08 18 37.994955 +62 25 45.90786
 2019-Jan-09 00:58 Am  08 18 37.944251 +62 25 42.87520
 2019-Jan-09 00:59 Am  08 18 37.893034 +62 25 39.84128
 2019-Jan-09 01:00 Am  08 18 37.841308 +62 25 36.80608
 2019-Jan-09 01:01 Am  08 18 37.789072 +62 25 33.76960
 2019-Jan-09 01:02 Am  08 18 37.736326 +62 25 30.73180
 2019-Jan-09 01:03 Am  08 18 37.683072 +62 25 27.69269
 2019-Jan-09 01:04 Am  08 18 37.629310 +62 25 24.65224
 2019-Jan-09 01:05 Am  08 18 37.575042 +62 25 21.61045
 2019-Jan-09 01:06 Am  08 18 37.520267 +62 25 18.56730
 2019-Jan-09 01:07 Am  08 18 37.464986 +62 25 15.52278
 2019-Jan-09 01:08 Am  08 18 37.409201 +62 25 12.47687
 2019-Jan-09 01:09 Am  08 18 37.352912 +62 25 09.42956
 2019-Jan-09 01:10 Am  08 18 37.296119 +62 25 06.38083
 2019-Jan-09 01:11 Am  08 18 37.238824 +62 25 03.33068
 2019-Jan-09 01:12 Am  08 18 37.181027 +62 25 00.27908
 2019-Jan-09 01:13 Am  08 18 37.122730 +62 24 57.22603
 2019-Jan-09 01:14 Am  08 18 37.063932 +62 24 54.17151
 2019-Jan-09 01:15 Am  08 18 37.004635 +62 24 51.11551
 2019-Jan-09 01:16 Am  08 18 36.944839 +62 24 48.05801
 2019-Jan-09 01:17 Am  08 18 36.884546 +62 24 44.99900
 2019-Jan-09 01:18 Am  08 18 36.823757 +62 24 41.93847
 2019-Jan-09 01:19 Am  08 18 36.762471 +62 24 38.87641
 2019-Jan-09 01:20 Am  08 18 36.700690 +62 24 35.81279
 2019-Jan-09 01:21 Am  08 18 36.638415 +62 24 32.74761
 2019-Jan-09 01:22 Am  08 18 36.575647 +62 24 29.68085
 2019-Jan-09 01:23 Am  08 18 36.512387 +62 24 26.61251
 2019-Jan-09 01:24 Am  08 18 36.448635 +62 24 23.54256
 2019-Jan-09 01:25  m  08 18 36.384392 +62 24 20.47099
 2019-Jan-09 01:26  m  08 18 36.319660 +62 24 17.39780
 2019-Jan-09 01:27  m  08 18 36.254439 +62 24 14.32296
 2019-Jan-09 01:28  m  08 18 36.188730 +62 24 11.24646
 2019-Jan-09 01:29  m  08 18 36.122534 +62 24 08.16830
 2019-Jan-09 01:30  m  08 18 36.055853 +62 24 05.08845
 2019-Jan-09 01:31  m  08 18 35.988687 +62 24 02.00691
 2019-Jan-09 01:32  m  08 18 35.921036 +62 23 58.92366
 2019-Jan-09 01:33  m  08 18 35.852903 +62 23 55.83868
 2019-Jan-09 01:34  m  08 18 35.784288 +62 23 52.75197
 2019-Jan-09 01:35  m  08 18 35.715192 +62 23 49.66351
 2019-Jan-09 01:36  m  08 18 35.645616 +62 23 46.57329
 2019-Jan-09 01:37  m  08 18 35.575561 +62 23 43.48130
 2019-Jan-09 01:38  m  08 18 35.505029 +62 23 40.38751
 2019-Jan-09 01:39  m  08 18 35.434019 +62 23 37.29193
 2019-Jan-09 01:40  m  08 18 35.362534 +62 23 34.19453
 2019-Jan-09 01:41  m  08 18 35.290574 +62 23 31.09531
 2019-Jan-09 01:42  m  08 18 35.218140 +62 23 27.99425
 2019-Jan-09 01:43  m  08 18 35.145234 +62 23 24.89133
 2019-Jan-09 01:44  m  08 18 35.071857 +62 23 21.78655
 2019-Jan-09 01:45  m  08 18 34.998009 +62 23 18.67990
 2019-Jan-09 01:46  m  08 18 34.923692 +62 23 15.57135
 2019-Jan-09 01:47  m  08 18 34.848907 +62 23 12.46090
 2019-Jan-09 01:48  m  08 18 34.773654 +62 23 09.34853
 2019-Jan-09 01:49  m  08 18 34.697936 +62 23 06.23423
 2019-Jan-09 01:50  m  08 18 34.621753 +62 23 03.11800
 2019-Jan-09 01:51  m  08 18 34.545107 +62 22 59.99981
 2019-Jan-09 01:52  m  08 18 34.467998 +62 22 56.87965
 2019-Jan-09 01:53  m  08 18 34.390428 +62 22 53.75751
 2019-Jan-09 01:54  m  08 18 34.312398 +62 22 50.63338
 2019-Jan-09 01:55     08 18 34.233909 +62 22 47.50725
 2019-Jan-09 01:56     08 18 34.154962 +62 22 44.37910
 2019-Jan-09 01:57     08 18 34.075559 +62 22 41.24892
 2019-Jan-09 01:58     08 18 33.995701 +62 22 38.11669
 2019-Jan-09 01:59     08 18 33.915388 +62 22 34.98242
 2019-Jan-09 02:00     08 18 33.834623 +62 22 31.84608
